GLOBALSTAR M057         
1 25943U 99058A   25191.53512362 -.00000027  00000+0  59503-3 0  9993
2 25943  51.9990 281.9457 0002953  74.4130 285.7045 12.24825099169797
GLOBALSTAR M059         
1 25944U 99058B   25191.60620164 -.00000100  00000+0 -17515-3 0  9992
2 25944  52.0001 143.8164 0000929 357.1126 173.6965 11.99980382576854
GLOBALSTAR M056         
1 25945U 99058C   25191.34568428 -.00000102  00000+0 -16888-3 0  9992
2 25945  51.9950 145.8865 0000726 244.8587 282.5459 12.04782139165415
GLOBALSTAR M031         
1 25946U 99058D   25191.28692752 -.00000129  00000+0 -38721-3 0  9993
2 25946  51.9977  36.9954 0000729 190.4498 341.1276 12.16038797167355
GLOBALSTAR M039         
1 25961U 99062A   25191.44390805 -.00000077  00000+0  15212-3 0  9998
2 25961  51.9818 197.8814 0002659  38.8055 321.3002 12.62329807183155
GLOBALSTAR M034         
1 25962U 99062B   25191.58208931 -.00000046  00000+0  55679-3 0  9999
2 25962  51.9894 310.5756 0014671  87.1789 285.7774 11.79446810141151
GLOBALSTAR M061         
1 25964U 99062D   25191.59201209 -.00000096  00000+0 -25788-3 0  9997
2 25964  51.9778 134.8935 0006455   8.3090 162.4031 11.76776476123935
